STARLINK-36319          
1 67970U 26038K   26066.25001157 -.01601719  75418-3 -38814-2 0  9990
2 67970  97.2732  76.3525 0001346  79.0237  49.5700 15.96427356  2770
STARLINK-36710          
1 67971U 26038L   26066.25001157 -.01587141  74390-3 -37827-2 0  9994
2 67971  97.2728  76.3559 0001230  85.5258  50.5515 15.96732278  2802
STARLINK-36894          
1 67972U 26038M   26066.25001157 -.01579258  73809-3 -37369-2 0  9990
2 67972  97.2724  76.3573 0001359  74.9644  64.5020 15.96863475  2808
STARLINK-36900          
1 67973U 26038N   26066.25001157 -.01567756  73027-3 -36551-2 0  9995
2 67973  97.2724  76.3600 0001194  82.8431  63.3890 15.97134915  2802
STARLINK-36901          
1 67974U 26038P   26066.25001157 -.01575869  73619-3 -37024-2 0  9993
2 67974  97.2723  76.3584 0001338  78.7336  63.9405 15.96994409  2800
STARLINK-36883          
1 67975U 26038Q   26066.25001157 -.01562415  73015-3 -35308-2 0  9990
2 67975  97.2715  76.3659 0001319  79.9663  79.9839 15.97703666  2802
STARLINK-36880          
1 67976U 26038R   26066.25001157 -.01571307  73451-3 -36342-2 0  9994
2 67976  97.2721  76.3614 0001316  82.2302  67.4532 15.97281605  2801
STARLINK-36904          
1 67977U 26038S   26066.25001157 -.01562555  72912-3 -35594-2 0  9999
2 67977  97.2714  76.3640 0001354  78.2572  78.2572 15.97558451  2809
STARLINK-36364          
1 67978U 26038T   26066.25001157 -.01569710  73922-3 -34820-2 0  9993
2 67978  97.2707  76.3691 0001296  75.0611  92.9704 15.98042669  2802
STARLINK-36359          
1 67979U 26038U   26066.25001157 -.01574977  73864-3 -36194-2 0  9996
2 67979  97.2717  76.3620 0001279  80.6591  71.9151 15.97399285  2807
STARLINK-36882          
1 67980U 26038V   26066.25001157 -.01562828  73195-3 -34968-2 0  9994
2 67980  97.2710  76.3672 0001230  84.6622  79.5243 15.97884874  2804
STARLINK-36874          
1 67981U 26038W   26066.25001157 -.01555786  72796-3 -34299-2 0  9993
2 67981  97.2708  76.3702 0001419  78.5663  92.2795 15.98152212  2801
